LEMUR-2-FINNIAN         
1 66782U 25276DX  26182.95187135  .00003301  00000+0  26644-3 0  9990
2 66782  97.5330 253.4795 0008478  45.8769 314.3151 15.00493510 22212
LEMUR-2-STARLIGHT       
1 66783U 25276DY  26183.45520613  .00007085  00000+0  58459-3 0  9991
2 66783  97.5232 253.5719 0014666  84.0655 276.2240 14.99216873 32483
LEMUR-2-TARTIFLETTE     
1 66784U 25276DZ  26183.45352874  .00007013  00000+0  57882-3 0  9994
2 66784  97.5235 253.5783 0013629  91.6516 268.6269 14.99220846 32487
LEMUR-2-VUKASIN         
1 66785U 25276EA  26183.16743319  .00001857  00000+0  15220-3 0  9991
2 66785  97.5271 253.6348 0004953  89.5693 270.6099 15.00442804 32395
LEMUR-2-HOTSPUR-TOM     
1 66786U 25276EB  26183.44712606  .00007369  00000+0  60938-3 0  9998
2 66786  97.5226 253.5500 0014246  83.3390 276.9454 14.99123275 32419
LEMUR-2-MYRA            
1 66787U 25276EC  26183.46637121  .00008688  00000+0  69209-3 0  9994
2 66787  97.5213 253.8474 0018201  92.9398 267.3910 15.00458761 32503
LEMUR-2 FIKRETDENGIZ    
1 67363U 26004A   26183.59691548  .00004917  00000+0  53517-3 0  9998
2 67363  97.8015 181.9187 0010569  90.5089 269.7339 14.88437782 25574
TWILIGHT-1 OBJECT B     
1 67364U 26004B   26182.95552111  .00002058  00000+0  23143-3 0  9996
2 67364  97.8064 181.2954 0010241  83.1024 277.1357 14.87754645 25480
LEMUR-2-MARIO-SOUSA     
1 67365U 26004C   26183.30965270  .00004896  00000+0  53039-3 0  9990
2 67365  97.7990 181.6315 0010193  92.2999 267.9385 14.88637260 25540
LEMUR-2-SONNENBLUME     
1 67367U 26004E   26183.44471210  .00003254  00000+0  35669-3 0  9999
2 67367  97.7987 181.7431 0009713  93.1021 267.1307 14.88397632 25564
LEMUR-2-WOBLER          
1 67368U 26004F   26183.23437220  .00004323  00000+0  46922-3 0  9992
2 67368  97.8040 181.6734 0010010  85.4516 274.7844 14.88621969 25536
LEMUR-2-GRAM-E-SUE      
1 67370U 26004H   26182.95676906  .00002949  00000+0  32271-3 0  9993
2 67370  97.7971 181.2787 0008857  96.3817 263.8409 14.88538003 25493
LEMUR-2-KATIE           
1 67387U 26004AA  26183.46548325  .00005942  00000+0  61925-3 0  9995
2 67387  97.8033 182.2884 0004404  62.0991 298.0672 14.90151706 25583
LEMUR-2-HCS-BAZUS       
1 67388U 26004AB  26183.46407472  .00004584  00000+0  47844-3 0  9998
2 67388  97.8024 182.2669 0003828  60.5048 299.6551 14.90209012 25587
